#aV2009 11  4  0  0   .00000000      96 DD+AD WGS84 FIT  NGA
## 1556 259200.00000000   900.00000000 55139  .0000000000000
+   31     1  2  3  4  5  6  7  8  9 10 11 12 13 14 15 16 17
+         18 19 20 21 22 23 24 26 27 28 29 30 31 32  0  0  0
+          0  0  0  0  0  0  0  0  0  0  0  0  0  0  0  0  0
+          0  0  0  0  0  0  0  0  0  0  0  0  0  0  0  0  0
+          0  0  0  0  0  0  0  0  0  0  0  0  0  0  0  0  0
++         0  0  0  0  0  0  0  0  0  0  0  0  0  0  0  0  0
++         0  0  0  0  0  0  0  0  0  0  0  0  0  0  0  0  0
++         0  0  0  0  0  0  0  0  0  0  0  0  0  0  0  0  0
++         0  0  0  0  0  0  0  0  0  0  0  0  0  0  0  0  0
++         0  0  0  0  0  0  0  0  0  0  0  0  0  0  0  0  0
%c cc cc ccc ccc cccc cccc cccc cccc ccccc ccccc ccccc ccccc
%c cc cc ccc ccc cccc cccc cccc cccc ccccc ccccc ccccc ccccc
%f  0.0000000  0.000000000  0.00000000000  0.000000000000000
%f  0.0000000  0.000000000  0.00000000000  0.000000000000000
%i    0    0    0    0      0      0      0      0         0
%i    0    0    0    0      0      0      0      0         0
/*      NGA, ST. LOUIS,MO.                                  
/*   EPHEMERIS COMPUTED FROM  3 DAYS OF DATA                
/* CCCCCCCCCCCCCCCCCCCCCCCCCCCCCCCCCCCCCCCCCCCCCCCCCCCCCCCCC
/* CCCCCCCCCCCCCCCCCCCCCCCCCCCCCCCCCCCCCCCCCCCCCCCCCCCCCCCCC
*  2009 11  4  5 30   .00000000                                                 
P  1  18618.616328 -17819.521695  -6297.501549    -63.255014                    
V  1   8063.525644  -2142.577914  30497.016116      -.018646                    
P  2  13296.258757  16365.212297 -16470.249032    187.843195                    
V  2   -345.419500  20762.321712  20008.600771       .041342                    
P  3 -24661.017292 -10267.207787  -1781.408043    469.797700                    
V  3   2945.592892  -2741.280851 -30638.609541       .052559                    
P  4   7421.592861  23983.253963  -8225.021192   -342.549405                    
V  4  -2860.971738  10559.224047  29115.158009      -.180704                    
P  5  19329.628436   2290.245530 -18115.713493    -51.204702                    
V  5 -18231.392674  14026.001197 -17616.597548       .075102                    
P  6 -22794.499461 -13124.691785  -3869.969741    258.916821                    
V  6   6131.500015  -1189.618875 -30563.250571       .027138                    
P  7  -7802.319725  21568.240070 -13270.751387      8.358173                    
V  7  -3145.609897 -16713.139603 -25488.368362      -.006918                    
P  8   -986.755995  26215.108802  -1395.699307     44.215056                    
V  8  -2290.540773  -1762.761536 -32702.725565       .926998                    
P  9  14053.762371  -4499.010232  21423.333083     86.592621                    
V  9   3034.994758  28587.704352   3945.697990       .019489                    
P 10  17244.547156   5556.301910 -19692.901186    -27.462343                    
V 10 -20207.375056  14012.579997 -13520.271084      -.007665                    
P 11 -14693.274422   8270.633095  20247.356537    -27.468876                    
V 11  -8375.946054 -25290.140139   4571.326057      -.017822                    
P 12  23640.951186  -9868.072065   6810.386611   -194.956447                    
V 12  -5803.732301   6838.670209  30414.161726       .053621                    
P 13  -9185.676358  11428.244815 -22270.657640    306.059813                    
V 13 -24073.803314 -14071.595171   2707.193378       .002326                    
P 14  -7898.961979 -17980.806547  18080.613010    -28.958736                    
V 14  20268.149794   9983.867547  18802.209668       .049444                    
P 15  24845.565320   6211.804849   7231.206271   -320.351104                    
V 15   7045.934242   6426.120170 -29770.636742       .001718                    
P 16 -13409.927536  -8729.741080 -21195.842534     -4.699789                    
V 16  22518.076892 -14806.649091  -7889.085359      -.041040                    
P 17   8518.909578  18263.318106  17477.514372     99.097312                    
V 17 -20209.646597  -8772.854355  18898.229663       .034769                    
P 18  13995.463062 -19066.935681  11949.615123     25.094434                    
V 18  14332.393274  -5326.542742 -26202.858667       .028279                    
P 19 -24111.738230  -6671.433098   9363.284384      3.033677                    
V 19  -8861.328534  -8092.827816 -28434.157331      -.018737                    
P 20 -22584.410405  13678.433226   2497.751931     68.426598                    
V 20    705.248332  -4788.774322  31103.920457      -.008637                    
P 21   5480.740527 -23968.333819  -8906.144728    -19.225214                    
V 21   4450.578273  11753.478463 -28617.808516      -.023407                    
P 22   2353.379587 -18171.340935  19368.160897    187.126868                    
V 22  21510.987300 -11505.857153 -13602.450335      -.009009                    
P 23 -20339.441463   2821.211218 -17041.893256    386.541944                    
V 23 -18494.855507 -10945.825448  19997.305981      -.005556                    
P 24  13237.381127 -13348.096319 -18745.145213    233.799329                    
V 24   1733.247997  23968.422077 -15499.335324       .030026                    
P 26   1262.280239 -15203.690473  21124.238755      5.261753                    
V 26  24755.322511  13347.555743   8386.722274      -.017174                    
P 27  15258.981817    -38.892056  22434.045732     96.910012                    
V 27   3053.131666  26605.808714  -2050.047306       .032098                    
P 28  -5011.361193  18353.935158  18844.361641    -25.608506                    
V 28 -20391.042068  10958.939138 -16796.279026       .001850                    
P 29  12387.403269 -10142.438615 -21093.532018     71.531129                    
V 29  23512.998565  13309.295638   7417.503105       .031081                    
P 30  19134.864902 -17902.569283  -4513.102930    190.366555                    
V 30   6020.414972   -683.078861  30944.133121       .030523                    
P 31  -8236.889561 -23003.458975 -10017.302846    -61.774881                    
V 31   1453.640342 -13175.530685  28598.656058       .007249                    
P 32 -24052.930497   5259.787168   9942.378331    164.865157                    
V 32   9421.091568  -8147.992817  28470.346747      -.074475                    
EOF
